UMBRA-10                
1 60547U 24149CH  26198.51120160  .00008222  00000+0  39740-3 0  9993
2 60547  97.6976 286.2847 0001797 161.4893 198.6406 15.18890909105337
ICEYE-X33               
1 60548U 24149CJ  26198.16989688  .00002555  00000+0  20546-3 0  9990
2 60548  97.7369 277.1615 0001911  73.0376 287.1057 15.00895206104701
ICEYE-X40               
1 60549U 24149CK  26198.62842002  .00001484  00000+0  13034-3 0  9994
2 60549  97.6800 274.6351 0004536 359.1312   0.9902 14.98081367104637
SATELIOT_1              
1 60550U 24149CL  26198.01604525  .00001194  00000+0  10558-3 0  9991
2 60550  97.6734 273.4174 0005443 347.4490  12.6596 14.98167193104530
BRO-14                  
1 60551U 24149CM  26197.68810408  .00001003  00000+0  93958-4 0  9998
2 60551  97.6864 272.9353 0006606  13.7779 346.3621 14.96238845104406
SATELIOT_3              
1 60552U 24149CN  26198.52627827  .00000362  00000+0  35451-4 0  9995
2 60552  97.6814 274.7403 0004822 354.9203   5.1970 14.98165702104622
BRO-15                  
1 60553U 24149CP  26198.47332220  .00000422  00000+0  42432-4 0  9994
2 60553  97.6790 273.2799 0007499 357.1090   3.0087 14.96223220104534
UM5-RIBAT               
1 60554U 24149CQ  26198.46773151  .00001096  00000+0  89968-4 0  9999
2 60554  97.6602 275.8570 0000490 326.3360  33.7833 15.01223599104731
UM5-EOSAT               
1 60555U 24149CR  26197.75797424  .00001810  00000+0  14366-3 0  9993
2 60555  97.6778 276.1635 0009071  31.4697 328.7068 15.01734757104654
LASARSAT                
1 62391U 24247Q   26197.09385022  .00020669  00000+0  39100-3 0  9992
2 62391  44.9739  99.5612 0007476 171.6523 188.4493 15.48082110 87798
CROCUBE                 
1 62394U 24247T   26198.08492527  .00025129  00000+0  43824-3 0  9998
2 62394  44.9718  90.7884 0007819 184.7174 175.3645 15.50291791 87985
TEVEL2-4                
1 63213U 25052D   26198.16635712  .00010121  00000+0  29456-3 0  9999
2 63213  97.3861  94.6235 0003412  48.0092 312.1442 15.35610547 74716
TEVEL2-5                
1 63214U 25052E   26197.66900195  .00011058  00000+0  32363-3 0  9995
2 63214  97.3862  94.0641 0003463  50.3372 309.8177 15.35411833 74632
TEVEL2-6                
1 63215U 25052F   26198.65959542  .00009817  00000+0  28776-3 0  9999
2 63215  97.3864  95.0416 0003362  51.0715 309.0827 15.35395037 74780
TEVEL2-1                
1 63217U 25052H   26198.50401061  .00009140  00000+0  27300-3 0  9994
2 63217  97.3833  94.4731 0004106  55.4900 304.6730 15.34820987 74748
TEVEL2-3                
1 63218U 25052J   26198.17150676  .00009845  00000+0  29333-3 0  9991
2 63218  97.3842  94.1664 0003827  58.5238 301.6379 15.34878538 74693
TEVEL2-2                
1 63219U 25052K   26198.43892551  .00009542  00000+0  28479-3 0  9990
2 63219  97.3834  94.4108 0004138  55.7304 304.4331 15.34831434 74738
TEVEL2-9                
1 63237U 25052AD  26197.67279632  .00010133  00000+0  32238-3 0  9990
2 63237  97.3899  92.9536 0007556  53.0535 307.1398 15.32762164 74544
TEVEL2-7                
1 63238U 25052AE  26198.17666353  .00008943  00000+0  28760-3 0  9998
2 63238  97.3898  93.3596 0007602  51.1945 308.9975 15.32453102 74618
TEVEL2-8                
1 63239U 25052AF  26197.66282234  .00009609  00000+0  30904-3 0  9997
2 63239  97.3904  92.8233 0007710  54.0583 306.1374 15.32429153 74532
FORESAIL-1 PRIME        
1 66778U 25276DS  26198.17054758  .00002254  00000+0  11112-3 0  9990
2 66778  97.4189 270.8955 0002737  40.2765 319.8672 15.18947700 34952
